[
  {
    "model": "api.Province",
    "pk": 1,
    "fields": {
      "name": "Thành phố Hà Nội",
      "division_type": "thành phố trung ương",
      "codename": "thanh_pho_ha_noi",
      "phone_code": 24
    }
  },
  {
    "model": "api.Province",
    "pk": 2,
    "fields": {
      "name": "Tỉnh Hà Giang",
      "division_type": "tỉnh",
      "codename": "tinh_ha_giang",
      "phone_code": 219
    }
  },
  {
    "model": "api.Province",
    "pk": 4,
    "fields": {
      "name": "Tỉnh Cao Bằng",
      "division_type": "tỉnh",
      "codename": "tinh_cao_bang",
      "phone_code": 206
    }
  },
  {
    "model": "api.Province",
    "pk": 6,
    "fields": {
      "name": "Tỉnh Bắc Kạn",
      "division_type": "tỉnh",
      "codename": "tinh_bac_kan",
      "phone_code": 209
    }
  },
  {
    "model": "api.Province",
    "pk": 8,
    "fields": {
      "name": "Tỉnh Tuyên Quang",
      "division_type": "tỉnh",
      "codename": "tinh_tuyen_quang",
      "phone_code": 207
    }
  },
  {
    "model": "api.Province",
    "pk": 10,
    "fields": {
      "name": "Tỉnh Lào Cai",
      "division_type": "tỉnh",
      "codename": "tinh_lao_cai",
      "phone_code": 214
    }
  },
  {
    "model": "api.Province",
    "pk": 11,
    "fields": {
      "name": "Tỉnh Điện Biên",
      "division_type": "tỉnh",
      "codename": "tinh_dien_bien",
      "phone_code": 215
    }
  },
  {
    "model": "api.Province",
    "pk": 12,
    "fields": {
      "name": "Tỉnh Lai Châu",
      "division_type": "tỉnh",
      "codename": "tinh_lai_chau",
      "phone_code": 213
    }
  },
  {
    "model": "api.Province",
    "pk": 14,
    "fields": {
      "name": "Tỉnh Sơn La",
      "division_type": "tỉnh",
      "codename": "tinh_son_la",
      "phone_code": 212
    }
  },
  {
    "model": "api.Province",
    "pk": 15,
    "fields": {
      "name": "Tỉnh Yên Bái",
      "division_type": "tỉnh",
      "codename": "tinh_yen_bai",
      "phone_code": 216
    }
  },
  {
    "model": "api.Province",
    "pk": 17,
    "fields": {
      "name": "Tỉnh Hoà Bình",
      "division_type": "tỉnh",
      "codename": "tinh_hoa_binh",
      "phone_code": 218
    }
  },
  {
    "model": "api.Province",
    "pk": 19,
    "fields": {
      "name": "Tỉnh Thái Nguyên",
      "division_type": "tỉnh",
      "codename": "tinh_thai_nguyen",
      "phone_code": 208
    }
  },
  {
    "model": "api.Province",
    "pk": 20,
    "fields": {
      "name": "Tỉnh Lạng Sơn",
      "division_type": "tỉnh",
      "codename": "tinh_lang_son",
      "phone_code": 205
    }
  },
  {
    "model": "api.Province",
    "pk": 22,
    "fields": {
      "name": "Tỉnh Quảng Ninh",
      "division_type": "tỉnh",
      "codename": "tinh_quang_ninh",
      "phone_code": 203
    }
  },
  {
    "model": "api.Province",
    "pk": 24,
    "fields": {
      "name": "Tỉnh Bắc Giang",
      "division_type": "tỉnh",
      "codename": "tinh_bac_giang",
      "phone_code": 204
    }
  },
  {
    "model": "api.Province",
    "pk": 25,
    "fields": {
      "name": "Tỉnh Phú Thọ",
      "division_type": "tỉnh",
      "codename": "tinh_phu_tho",
      "phone_code": 210
    }
  },
  {
    "model": "api.Province",
    "pk": 26,
    "fields": {
      "name": "Tỉnh Vĩnh Phúc",
      "division_type": "tỉnh",
      "codename": "tinh_vinh_phuc",
      "phone_code": 211
    }
  },
  {
    "model": "api.Province",
    "pk": 27,
    "fields": {
      "name": "Tỉnh Bắc Ninh",
      "division_type": "tỉnh",
      "codename": "tinh_bac_ninh",
      "phone_code": 222
    }
  },
  {
    "model": "api.Province",
    "pk": 30,
    "fields": {
      "name": "Tỉnh Hải Dương",
      "division_type": "tỉnh",
      "codename": "tinh_hai_duong",
      "phone_code": 220
    }
  },
  {
    "model": "api.Province",
    "pk": 31,
    "fields": {
      "name": "Thành phố Hải Phòng",
      "division_type": "thành phố trung ương",
      "codename": "thanh_pho_hai_phong",
      "phone_code": 225
    }
  },
  {
    "model": "api.Province",
    "pk": 33,
    "fields": {
      "name": "Tỉnh Hưng Yên",
      "division_type": "tỉnh",
      "codename": "tinh_hung_yen",
      "phone_code": 221
    }
  },
  {
    "model": "api.Province",
    "pk": 34,
    "fields": {
      "name": "Tỉnh Thái Bình",
      "division_type": "tỉnh",
      "codename": "tinh_thai_binh",
      "phone_code": 227
    }
  },
  {
    "model": "api.Province",
    "pk": 35,
    "fields": {
      "name": "Tỉnh Hà Nam",
      "division_type": "tỉnh",
      "codename": "tinh_ha_nam",
      "phone_code": 226
    }
  },
  {
    "model": "api.Province",
    "pk": 36,
    "fields": {
      "name": "Tỉnh Nam Định",
      "division_type": "tỉnh",
      "codename": "tinh_nam_dinh",
      "phone_code": 228
    }
  },
  {
    "model": "api.Province",
    "pk": 37,
    "fields": {
      "name": "Tỉnh Ninh Bình",
      "division_type": "tỉnh",
      "codename": "tinh_ninh_binh",
      "phone_code": 229
    }
  },
  {
    "model": "api.Province",
    "pk": 38,
    "fields": {
      "name": "Tỉnh Thanh Hóa",
      "division_type": "tỉnh",
      "codename": "tinh_thanh_hoa",
      "phone_code": 237
    }
  },
  {
    "model": "api.Province",
    "pk": 40,
    "fields": {
      "name": "Tỉnh Nghệ An",
      "division_type": "tỉnh",
      "codename": "tinh_nghe_an",
      "phone_code": 238
    }
  },
  {
    "model": "api.Province",
    "pk": 42,
    "fields": {
      "name": "Tỉnh Hà Tĩnh",
      "division_type": "tỉnh",
      "codename": "tinh_ha_tinh",
      "phone_code": 239
    }
  },
  {
    "model": "api.Province",
    "pk": 44,
    "fields": {
      "name": "Tỉnh Quảng Bình",
      "division_type": "tỉnh",
      "codename": "tinh_quang_binh",
      "phone_code": 232
    }
  },
  {
    "model": "api.Province",
    "pk": 45,
    "fields": {
      "name": "Tỉnh Quảng Trị",
      "division_type": "tỉnh",
      "codename": "tinh_quang_tri",
      "phone_code": 233
    }
  },
  {
    "model": "api.Province",
    "pk": 46,
    "fields": {
      "name": "Tỉnh Thừa Thiên Huế",
      "division_type": "tỉnh",
      "codename": "tinh_thua_thien_hue",
      "phone_code": 234
    }
  },
  {
    "model": "api.Province",
    "pk": 48,
    "fields": {
      "name": "Thành phố Đà Nẵng",
      "division_type": "thành phố trung ương",
      "codename": "thanh_pho_da_nang",
      "phone_code": 236
    }
  },
  {
    "model": "api.Province",
    "pk": 49,
    "fields": {
      "name": "Tỉnh Quảng Nam",
      "division_type": "tỉnh",
      "codename": "tinh_quang_nam",
      "phone_code": 235
    }
  },
  {
    "model": "api.Province",
    "pk": 51,
    "fields": {
      "name": "Tỉnh Quảng Ngãi",
      "division_type": "tỉnh",
      "codename": "tinh_quang_ngai",
      "phone_code": 255
    }
  },
  {
    "model": "api.Province",
    "pk": 52,
    "fields": {
      "name": "Tỉnh Bình Định",
      "division_type": "tỉnh",
      "codename": "tinh_binh_dinh",
      "phone_code": 256
    }
  },
  {
    "model": "api.Province",
    "pk": 54,
    "fields": {
      "name": "Tỉnh Phú Yên",
      "division_type": "tỉnh",
      "codename": "tinh_phu_yen",
      "phone_code": 257
    }
  },
  {
    "model": "api.Province",
    "pk": 56,
    "fields": {
      "name": "Tỉnh Khánh Hòa",
      "division_type": "tỉnh",
      "codename": "tinh_khanh_hoa",
      "phone_code": 258
    }
  },
  {
    "model": "api.Province",
    "pk": 58,
    "fields": {
      "name": "Tỉnh Ninh Thuận",
      "division_type": "tỉnh",
      "codename": "tinh_ninh_thuan",
      "phone_code": 259
    }
  },
  {
    "model": "api.Province",
    "pk": 60,
    "fields": {
      "name": "Tỉnh Bình Thuận",
      "division_type": "tỉnh",
      "codename": "tinh_binh_thuan",
      "phone_code": 252
    }
  },
  {
    "model": "api.Province",
    "pk": 62,
    "fields": {
      "name": "Tỉnh Kon Tum",
      "division_type": "tỉnh",
      "codename": "tinh_kon_tum",
      "phone_code": 260
    }
  },
  {
    "model": "api.Province",
    "pk": 64,
    "fields": {
      "name": "Tỉnh Gia Lai",
      "division_type": "tỉnh",
      "codename": "tinh_gia_lai",
      "phone_code": 269
    }
  },
  {
    "model": "api.Province",
    "pk": 66,
    "fields": {
      "name": "Tỉnh Đắk Lắk",
      "division_type": "tỉnh",
      "codename": "tinh_dak_lak",
      "phone_code": 262
    }
  },
  {
    "model": "api.Province",
    "pk": 67,
    "fields": {
      "name": "Tỉnh Đắk Nông",
      "division_type": "tỉnh",
      "codename": "tinh_dak_nong",
      "phone_code": 261
    }
  },
  {
    "model": "api.Province",
    "pk": 68,
    "fields": {
      "name": "Tỉnh Lâm Đồng",
      "division_type": "tỉnh",
      "codename": "tinh_lam_dong",
      "phone_code": 263
    }
  },
  {
    "model": "api.Province",
    "pk": 70,
    "fields": {
      "name": "Tỉnh Bình Phước",
      "division_type": "tỉnh",
      "codename": "tinh_binh_phuoc",
      "phone_code": 271
    }
  },
  {
    "model": "api.Province",
    "pk": 72,
    "fields": {
      "name": "Tỉnh Tây Ninh",
      "division_type": "tỉnh",
      "codename": "tinh_tay_ninh",
      "phone_code": 276
    }
  },
  {
    "model": "api.Province",
    "pk": 74,
    "fields": {
      "name": "Tỉnh Bình Dương",
      "division_type": "tỉnh",
      "codename": "tinh_binh_duong",
      "phone_code": 274
    }
  },
  {
    "model": "api.Province",
    "pk": 75,
    "fields": {
      "name": "Tỉnh Đồng Nai",
      "division_type": "tỉnh",
      "codename": "tinh_dong_nai",
      "phone_code": 251
    }
  },
  {
    "model": "api.Province",
    "pk": 77,
    "fields": {
      "name": "Tỉnh Bà Rịa - Vũng Tàu",
      "division_type": "tỉnh",
      "codename": "tinh_ba_ria_vung_tau",
      "phone_code": 254
    }
  },
  {
    "model": "api.Province",
    "pk": 79,
    "fields": {
      "name": "Thành phố Hồ Chí Minh",
      "division_type": "thành phố trung ương",
      "codename": "thanh_pho_ho_chi_minh",
      "phone_code": 28
    }
  },
  {
    "model": "api.Province",
    "pk": 80,
    "fields": {
      "name": "Tỉnh Long An",
      "division_type": "tỉnh",
      "codename": "tinh_long_an",
      "phone_code": 272
    }
  },
  {
    "model": "api.Province",
    "pk": 82,
    "fields": {
      "name": "Tỉnh Tiền Giang",
      "division_type": "tỉnh",
      "codename": "tinh_tien_giang",
      "phone_code": 273
    }
  },
  {
    "model": "api.Province",
    "pk": 83,
    "fields": {
      "name": "Tỉnh Bến Tre",
      "division_type": "tỉnh",
      "codename": "tinh_ben_tre",
      "phone_code": 275
    }
  },
  {
    "model": "api.Province",
    "pk": 84,
    "fields": {
      "name": "Tỉnh Trà Vinh",
      "division_type": "tỉnh",
      "codename": "tinh_tra_vinh",
      "phone_code": 294
    }
  },
  {
    "model": "api.Province",
    "pk": 86,
    "fields": {
      "name": "Tỉnh Vĩnh Long",
      "division_type": "tỉnh",
      "codename": "tinh_vinh_long",
      "phone_code": 270
    }
  },
  {
    "model": "api.Province",
    "pk": 87,
    "fields": {
      "name": "Tỉnh Đồng Tháp",
      "division_type": "tỉnh",
      "codename": "tinh_dong_thap",
      "phone_code": 277
    }
  },
  {
    "model": "api.Province",
    "pk": 89,
    "fields": {
      "name": "Tỉnh An Giang",
      "division_type": "tỉnh",
      "codename": "tinh_an_giang",
      "phone_code": 296
    }
  },
  {
    "model": "api.Province",
    "pk": 91,
    "fields": {
      "name": "Tỉnh Kiên Giang",
      "division_type": "tỉnh",
      "codename": "tinh_kien_giang",
      "phone_code": 297
    }
  },
  {
    "model": "api.Province",
    "pk": 92,
    "fields": {
      "name": "Thành phố Cần Thơ",
      "division_type": "thành phố trung ương",
      "codename": "thanh_pho_can_tho",
      "phone_code": 292
    }
  },
  {
    "model": "api.Province",
    "pk": 93,
    "fields": {
      "name": "Tỉnh Hậu Giang",
      "division_type": "tỉnh",
      "codename": "tinh_hau_giang",
      "phone_code": 293
    }
  },
  {
    "model": "api.Province",
    "pk": 94,
    "fields": {
      "name": "Tỉnh Sóc Trăng",
      "division_type": "tỉnh",
      "codename": "tinh_soc_trang",
      "phone_code": 299
    }
  },
  {
    "model": "api.Province",
    "pk": 95,
    "fields": {
      "name": "Tỉnh Bạc Liêu",
      "division_type": "tỉnh",
      "codename": "tinh_bac_lieu",
      "phone_code": 291
    }
  },
  {
    "model": "api.Province",
    "pk": 96,
    "fields": {
      "name": "Tỉnh Cà Mau",
      "division_type": "tỉnh",
      "codename": "tinh_ca_mau",
      "phone_code": 290
    }
  }
]